{"type": "FeatureCollection", "features": [ {"type": "Feature", "properties": {"norad_id": 66563, "name": "STARLINK-35437", "group": "last-30-days", "lat": -6.149483789488727, "lon": 144.06328569305208, "alt_km": 395.2577154671144, "timestamp": "2025-12-07T16:44:02.690396+00:00", "meta": {"OBJECT_NAME": "STARLINK-35437", "OBJECT_ID": "2025-268G", "EPOCH": "2025-12-06T22:00:01.999584", "MEAN_MOTION": 15.60629172, "ECCENTRICITY": 0.00015725, "INCLINATION": 42.9998, "RA_OF_ASC_NODE": 155.3272, "ARG_OF_PERICENTER": 268.9831, "MEAN_ANOMALY": 15.9623, "EPHEMERIS_TYPE": 0, "CLASSIFICATION_TYPE": "U", "NORAD_CAT_ID": 66563, "ELEMENT_SET_NO": 999, "REV_AT_EPOCH": 373, "BSTAR": -0.025853252, "MEAN_MOTION_DOT": -0.01940078, "MEAN_MOTION_DDOT": 0}, "tle": {"line1": "1 66563U 25268G   25340.91668981 -.01940078  00000+0 -25853-1 0  9995", "line2": "2 66563  42.9998 155.3272 0001572 268.9831  15.9623 15.60629172  3734"}}, "geometry": {"type": "Point", "coordinates": [144.06328569305208, -6.149483789488727]}}, {"type": "Feature", "properties": {"norad_id": 66564, "name": "STARLINK-35358", "group": "last-30-days", "lat": -4.849667563104294, "lon": 145.47433700411474, "alt_km": 395.1089194646338, "timestamp": "2025-12-07T16:44:02.690408+00:00", "meta": {"OBJECT_NAME": "STARLINK-35358", "OBJECT_ID": "2025-268H", "EPOCH": "2025-12-06T22:00:01.999584", "MEAN_MOTION": 15.60630233, "ECCENTRICITY": 0.00016683, "INCLINATION": 42.9996, "RA_OF_ASC_NODE": 155.3228, "ARG_OF_PERICENTER": 269.9325, "MEAN_ANOMALY": 16.9282, "EPHEMERIS_TYPE": 0, "CLASSIFICATION_TYPE": "U", "NORAD_CAT_ID": 66564, "ELEMENT_SET_NO": 999, "REV_AT_EPOCH": 368, "BSTAR": -0.025866335, "MEAN_MOTION_DOT": -0.01941082, "MEAN_MOTION_DDOT": 0}, "tle": {"line1": "1 66564U 25268H   25340.91668981 -.01941082  00000+0 -25866-1 0  9996", "line2": "2 66564  42.9996 155.3228 0001668 269.9325  16.9282 15.60630233  3685"}}, "geometry": {"type": "Point", "coordinates": [145.47433700411474, -4.849667563104294]}}, {"type": "Feature", "properties": {"norad_id": 66565, "name": "STARLINK-35893", "group": "last-30-days", "lat": -3.515355006956282, "lon": 146.91348807306156, "alt_km": 394.254221199154, "timestamp": "2025-12-07T16:44:02.690421+00:00", "meta": {"OBJECT_NAME": "STARLINK-35893", "OBJECT_ID": "2025-268J", "EPOCH": "2025-12-06T22:00:01.999584", "MEAN_MOTION": 15.60540366, "ECCENTRICITY": 0.0001777, "INCLINATION": 42.9997, "RA_OF_ASC_NODE": 155.3178, "ARG_OF_PERICENTER": 286.7691, "MEAN_ANOMALY": 2.0731, "EPHEMERIS_TYPE": 0, "CLASSIFICATION_TYPE": "U", "NORAD_CAT_ID": 66565, "ELEMENT_SET_NO": 999, "REV_AT_EPOCH": 373, "BSTAR": -0.024572177, "MEAN_MOTION_DOT": -0.01849347, "MEAN_MOTION_DDOT": 0}, "tle": {"line1": "1 66565U 25268J   25340.91668981 -.01849347  00000+0 -24572-1 0  9991", "line2": "2 66565  42.9997 155.3178 0001777 286.7691   2.0731 15.60540366  3733"}}, "geometry": {"type": "Point", "coordinates": [146.91348807306156, -3.515355006956282]}}, {"type": "Feature", "properties": {"norad_id": 66566, "name": "STARLINK-35871", "group": "last-30-days", "lat": -2.2418378151819, "lon": 148.2807128957887, "alt_km": 394.8131244861779, "timestamp": "2025-12-07T16:44:02.690431+00:00", "meta": {"OBJECT_NAME": "STARLINK-35871", "OBJECT_ID": "2025-268K", "EPOCH": "2025-12-06T22:00:01.999584", "MEAN_MOTION": 15.60627098, "ECCENTRICITY": 0.00016725, "INCLINATION": 42.9996, "RA_OF_ASC_NODE": 155.3128, "ARG_OF_PERICENTER": 272.0572, "MEAN_ANOMALY": 18.6401, "EPHEMERIS_TYPE": 0, "CLASSIFICATION_TYPE": "U", "NORAD_CAT_ID": 66566, "ELEMENT_SET_NO": 999, "REV_AT_EPOCH": 373, "BSTAR": -0.025831689, "MEAN_MOTION_DOT": -0.01938587, "MEAN_MOTION_DDOT": 0}, "tle": {"line1": "1 66566U 25268K   25340.91668981 -.01938587  00000+0 -25832-1 0  9997", "line2": "2 66566  42.9996 155.3128 0001672 272.0572  18.6401 15.60627098  3733"}}, "geometry": {"type": "Point", "coordinates": [148.2807128957887, -2.2418378151819]}}, {"type": "Feature", "properties": {"norad_id": 66567, "name": "STARLINK-35825", "group": "last-30-days", "lat": -0.9344879287837344, "lon": 149.6807917906455, "alt_km": 394.72341252472506, "timestamp": "2025-12-07T16:44:02.690441+00:00", "meta": {"OBJECT_NAME": "STARLINK-35825", "OBJECT_ID": "2025-268L", "EPOCH": "2025-12-06T22:00:01.999584", "MEAN_MOTION": 15.6062891, "ECCENTRICITY": 0.0001608, "INCLINATION": 42.9996, "RA_OF_ASC_NODE": 155.3081, "ARG_OF_PERICENTER": 271.35, "MEAN_ANOMALY": 21.2627, "EPHEMERIS_TYPE": 0, "CLASSIFICATION_TYPE": "U", "NORAD_CAT_ID": 66567, "ELEMENT_SET_NO": 999, "REV_AT_EPOCH": 373, "BSTAR": -0.025838751, "MEAN_MOTION_DOT": -0.01939128, "MEAN_MOTION_DDOT": 0}, "tle": {"line1": "1 66567U 25268L   25340.91668981 -.01939128  00000+0 -25839-1 0  9997", "line2": "2 66567  42.9996 155.3081 0001608 271.3500  21.2627 15.60628910  3738"}}, "geometry": {"type": "Point", "coordinates": [149.6807917906455, -0.9344879287837344]}}, {"type": "Feature", "properties": {"norad_id": 66568, "name": "STARLINK-35803", "group": "last-30-days", "lat": 0.3729996347141341, "lon": 151.0788922591923, "alt_km": 394.70578863916853, "timestamp": "2025-12-07T16:44:02.690451+00:00", "meta": {"OBJECT_NAME": "STARLINK-35803", "OBJECT_ID": "2025-268M", "EPOCH": "2025-12-06T22:00:01.999584", "MEAN_MOTION": 15.60628929, "ECCENTRICITY": 0.00016641, "INCLINATION": 42.9998, "RA_OF_ASC_NODE": 155.3029, "ARG_OF_PERICENTER": 268.2744, "MEAN_ANOMALY": 26.2554, "EPHEMERIS_TYPE": 0, "CLASSIFICATION_TYPE": "U", "NORAD_CAT_ID": 66568, "ELEMENT_SET_NO": 999, "REV_AT_EPOCH": 373, "BSTAR": -0.025840888, "MEAN_MOTION_DOT": -0.0193931, "MEAN_MOTION_DDOT": 0}, "tle": {"line1": "1 66568U 25268M   25340.91668981 -.01939310  00000+0 -25841-1 0  9994", "line2": "2 66568  42.9998 155.3029 0001664 268.2744  26.2554 15.60628929  3734"}}, "geometry": {"type": "Point", "coordinates": [151.0788922591923, 0.3729996347141341]}}, {"type": "Feature", "properties": {"norad_id": 66569, "name": "STARLINK-35835", "group": "last-30-days", "lat": 1.6794672585972297, "lon": 152.4770253733475, "alt_km": 394.5593973413279, "timestamp": "2025-12-07T16:44:02.690461+00:00", "meta": {"OBJECT_NAME": "STARLINK-35835", "OBJECT_ID": "2025-268N", "EPOCH": "2025-12-06T22:00:01.999584", "MEAN_MOTION": 15.60631147, "ECCENTRICITY": 0.0001638, "INCLINATION": 42.9996, "RA_OF_ASC_NODE": 155.2982, "ARG_OF_PERICENTER": 269.0603, "MEAN_ANOMALY": 27.3845, "EPHEMERIS_TYPE": 0, "CLASSIFICATION_TYPE": "U", "NORAD_CAT_ID": 66569, "ELEMENT_SET_NO": 999, "REV_AT_EPOCH": 373, "BSTAR": -0.025864874, "MEAN_MOTION_DOT": -0.01941024, "MEAN_MOTION_DDOT": 0}, "tle": {"line1": "1 66569U 25268N   25340.91668981 -.01941024  00000+0 -25865-1 0  9996", "line2": "2 66569  42.9996 155.2982 0001638 269.0603  27.3845 15.60631147  3735"}}, "geometry": {"type": "Point", "coordinates": [152.4770253733475, 1.6794672585972297]}}, {"type": "Feature", "properties": {"norad_id": 66570, "name": "STARLINK-35834", "group": "last-30-days", "lat": 2.9819292882108375, "lon": 153.87322131610685, "alt_km": 394.30055826616535, "timestamp": "2025-12-07T16:44:02.690471+00:00", "meta": {"OBJECT_NAME": "STARLINK-35834", "OBJECT_ID": "2025-268P", "EPOCH": "2025-12-06T22:00:01.999584", "MEAN_MOTION": 15.60633642, "ECCENTRICITY": 0.00016129, "INCLINATION": 42.9999, "RA_OF_ASC_NODE": 155.2929, "ARG_OF_PERICENTER": 273.443, "MEAN_ANOMALY": 24.9186, "EPHEMERIS_TYPE": 0, "CLASSIFICATION_TYPE": "U", "NORAD_CAT_ID": 66570, "ELEMENT_SET_NO": 999, "REV_AT_EPOCH": 373, "BSTAR": -0.025927921, "MEAN_MOTION_DOT": -0.01945336, "MEAN_MOTION_DDOT": 0}, "tle": {"line1": "1 66570U 25268P   25340.91668981 -.01945336  00000+0 -25928-1 0  9998", "line2": "2 66570  42.9999 155.2929 0001612 273.4430  24.9186 15.60633642  3733"}}, "geometry": {"type": "Point", "coordinates": [153.87322131610685, 2.9819292882108375]}}, {"type": "Feature", "properties": {"norad_id": 66571, "name": "STARLINK-35836", "group": "last-30-days", "lat": 4.2864153239079625, "lon": 155.27746558495824, "alt_km": 394.22506043621615, "timestamp": "2025-12-07T16:44:02.690484+00:00", "meta": {"OBJECT_NAME": "STARLINK-35836", "OBJECT_ID": "2025-268Q", "EPOCH": "2025-12-06T22:00:01.999584", "MEAN_MOTION": 15.60633288, "ECCENTRICITY": 0.00016723, "INCLINATION": 42.9997, "RA_OF_ASC_NODE": 155.2882, "ARG_OF_PERICENTER": 271.9193, "MEAN_ANOMALY": 28.36, "EPHEMERIS_TYPE": 0, "CLASSIFICATION_TYPE": "U", "NORAD_CAT_ID": 66571, "ELEMENT_SET_NO": 999, "REV_AT_EPOCH": 373, "BSTAR": -0.025929367, "MEAN_MOTION_DOT": -0.01945451, "MEAN_MOTION_DDOT": 0}, "tle": {"line1": "1 66571U 25268Q   25340.91668981 -.01945451  00000+0 -25929-1 0  9998", "line2": "2 66571  42.9997 155.2882 0001672 271.9193  28.3600 15.60633288  3730"}}, "geometry": {"type": "Point", "coordinates": [155.27746558495824, 4.2864153239079625]}}, {"type": "Feature", "properties": {"norad_id": 66572, "name": "STARLINK-35870", "group": "last-30-days", "lat": 5.590686250542648, "lon": 156.69018616645732, "alt_km": 394.1464159750767, "timestamp": "2025-12-07T16:44:02.690495+00:00", "meta": {"OBJECT_NAME": "STARLINK-35870", "OBJECT_ID": "2025-268R", "EPOCH": "2025-12-06T22:00:01.999584", "MEAN_MOTION": 15.60632801, "ECCENTRICITY": 0.00016243, "INCLINATION": 42.9997, "RA_OF_ASC_NODE": 155.2846, "ARG_OF_PERICENTER": 270.0087, "MEAN_ANOMALY": 32.1868, "EPHEMERIS_TYPE": 0, "CLASSIFICATION_TYPE": "U", "NORAD_CAT_ID": 66572, "ELEMENT_SET_NO": 999, "REV_AT_EPOCH": 373, "BSTAR": -0.025890811, "MEAN_MOTION_DOT": -0.01942838, "MEAN_MOTION_DDOT": 0}, "tle": {"line1": "1 66572U 25268R   25340.91668981 -.01942838  00000+0 -25891-1 0  9993", "line2": "2 66572  42.9997 155.2846 0001624 270.0087  32.1868 15.60632801  3739"}}, "geometry": {"type": "Point", "coordinates": [156.69018616645732, 5.590686250542648]}}]}